ONEWEB-0012             
1 44057U 19010A   26169.08914266  .00000091  00000+0  20462-3 0  9997
2 44057  87.9098 228.6065 0001945  85.7254 274.4099 13.16595162351689
ONEWEB-0010             
1 44058U 19010B   26169.11447358 -.00000008  00000+0 -54529-4 0  9997
2 44058  87.9098 228.5969 0001883 106.6651 253.4687 13.16594847351732
ONEWEB-0008             
1 44059U 19010C   26169.13980133  .00000080  00000+0  17605-3 0  9994
2 44059  87.9094 228.5875 0002316  97.7400 262.3994 13.16595849351855
ONEWEB-0007             
1 44060U 19010D   26168.79539068  .00000008  00000+0 -14043-4 0  9999
2 44060  87.9002 259.0999 0001664  98.9967 261.1351 13.15548407351455
ONEWEB-0006             
1 44061U 19010E   26168.79933915 -.00000049  00000+0 -16409-3 0  9992
2 44061  87.9015 259.0634 0001865 103.4333 256.7005 13.15549016351507
ONEWEB-0011             
1 44062U 19010F   26169.22399461  .00000094  00000+0  21491-3 0  9999
2 44062  87.9014 258.9887 0002105 104.9647 255.1717 13.15547460351556
ONEWEB-0013             
1 45131U 20008A   26169.08696515 -.00000700  00000+0 -20688-2 0  9992
2 45131  87.8521  52.6437 0002222  54.1325 306.0008 13.09456232306182
ONEWEB-0017             
1 45132U 20008B   26169.06872633  .00001670  00000+0  47466-2 0  9996
2 45132  87.8834  36.0938 0001961  73.0237 287.1105 13.10383707308067
ONEWEB-0020             
1 45133U 20008C   26169.11507058  .00005003  00000+0  14274-1 0  9993
2 45133  87.8836  36.0824 0001727  81.5586 278.5737 13.10441662308469
ONEWEB-0021             
1 45134U 20008D   26169.13008352  .00003048  00000+0  86890-2 0  9990
2 45134  87.8836  36.0953 0001921  81.8032 278.3313 13.10405743308770
ONEWEB-0023             
1 45136U 20008F   26169.06456309  .00000936  00000+0  26453-2 0  9995
2 45136  87.8839  36.0904 0001902  78.5339 281.6002 13.10384427308196
ONEWEB-0024             
1 45137U 20008G   26169.11351026  .00007010  00000+0  20005-1 0  9998
2 45137  87.8841  36.0724 0001672  78.4304 281.7011 13.10456500308367
ONEWEB-0025             
1 45138U 20008H   26169.11323442  .00006723  00000+0  19184-1 0  9996
2 45138  87.8840  36.0625 0002366  85.6994 274.4403 13.10457137308690
ONEWEB-0026             
1 45139U 20008J   26169.07410969 -.00000478  00000+0 -13838-2 0  9997
2 45139  87.8883  20.8918 0001829  90.6463 269.4874 13.11414784311225
ONEWEB-0028             
1 45140U 20008K   26169.12583047  .00000398  00000+0  10879-2 0  9994
2 45140  87.8878  20.8899 0001963  68.1482 291.9855 13.11413940308744
ONEWEB-0032             
1 45141U 20008L   26169.07053071  .00000483  00000+0  13466-2 0  9998
2 45141  87.8832  36.0946 0001974  68.5068 291.6270 13.10375492308413
ONEWEB-0033             
1 45142U 20008M   26169.12171463  .00004744  00000+0  13535-1 0  9991
2 45142  87.8842  36.0895 0001654  94.5651 265.5665 13.10434509308334
ONEWEB-0035             
1 45143U 20008N   26169.06554841  .00000234  00000+0  63333-3 0  9993
2 45143  87.8832  36.0957 0001725  85.4299 274.7025 13.10377394308058
ONEWEB-0036             
1 45144U 20008P   26169.11729891 -.00000616  00000+0 -18123-2 0  9991
2 45144  87.8847  36.0971 0001945  77.6274 282.5071 13.09981323308487
ONEWEB-0038             
1 45145U 20008Q   26169.08442318 -.00000440  00000+0 -12772-2 0  9993
2 45145  87.8899  20.8987 0000302  20.7083 339.4057 13.11418121310445
ONEWEB-0039             
1 45146U 20008R   26169.04879887 -.00000511  00000+0 -15007-2 0  9998
2 45146  87.8830  36.0966 0001877  66.6167 293.5157 13.10374808308278
ONEWEB-0040             
1 45147U 20008S   26167.89677890 -.00000546  00000+0 -15988-2 0  9996
2 45147  87.8826  36.3351 0001636  79.9024 280.2288 13.10390462307829
ONEWEB-0043             
1 45149U 20008U   26169.12004899  .00005377  00000+0  15345-1 0  9990
2 45149  87.8815  36.0840 0001940  61.0550 299.0772 13.10436838308301
ONEWEB-0044             
1 45150U 20008V   26169.07205757  .00000185  00000+0  49336-3 0  9993
2 45150  87.8841  36.0906 0001702  74.5320 285.5995 13.10372906308598
ONEWEB-0045             
1 45151U 20008W   26169.07919941 -.00000548  00000+0 -15834-2 0  9991
2 45151  87.8894  20.8822 0001771  81.8531 278.2798 13.11416623310528
ONEWEB-0047             
1 45152U 20008X   26169.06525859  .00000735  00000+0  20700-2 0  9996
2 45152  87.8841  36.0917 0001607  85.3509 274.7802 13.10382229308311
ONEWEB-0048             
1 45153U 20008Y   26169.06040500  .00001567  00000+0  44496-2 0  9994
2 45153  87.8832  36.1137 0001830  84.0231 276.1105 13.10388913307927
ONEWEB-0049             
1 45154U 20008Z   26169.06359415  .00001137  00000+0  32202-2 0  9998
2 45154  87.8831  36.1024 0002220  80.1467 279.9911 13.10386542308141
ONEWEB-0051             
1 45155U 20008AA  26169.07751047 -.00000476  00000+0 -13789-2 0  9993
2 45155  87.8886  20.8899 0001835  85.2152 274.9185 13.11417806311208
ONEWEB-0052             
1 45156U 20008AB  26169.08389217 -.00004227  00000+0 -12161-1 0  9991
2 45156  87.8849  36.0832 0002409  83.2176 276.9225 13.10325835308051
