OBJECT_NAME,OBJECT_ID,EPOCH,MEAN_MOTION,ECCENTRICITY,INCLINATION,RA_OF_ASC_NODE,ARG_OF_PERICENTER,MEAN_ANOMALY,EPHEMERIS_TYPE,CLASSIFICATION_TYPE,NORAD_CAT_ID,ELEMENT_SET_NO,REV_AT_EPOCH,BSTAR,MEAN_MOTION_DOT,MEAN_MOTION_DDOT
ONEWEB-0012,2019-010A,2026-06-18T02:08:21.925824,13.16595162,.00019451,87.9098,228.6065,85.7254,274.4099,0,U,44057,999,35168,.20461687E-3,.91E-6,0
ONEWEB-0010,2019-010B,2026-06-18T02:44:50.517312,13.16594847,.00018836,87.9098,228.5969,106.6651,253.4687,0,U,44058,999,35173,-.54528548E-4,-.8E-7,0
ONEWEB-0008,2019-010C,2026-06-18T03:21:18.834912,13.16595849,.00023164,87.9094,228.5875,97.7400,262.3994,0,U,44059,999,35185,.1760471E-3,.8E-6,0
ONEWEB-0007,2019-010D,2026-06-17T19:05:21.754752,13.15548407,.00016643,87.9002,259.0999,98.9967,261.1351,0,U,44060,999,35145,-.14042765E-4,.8E-7,0
ONEWEB-0006,2019-010E,2026-06-17T19:11:02.902560,13.15549016,.00018651,87.9015,259.0634,103.4333,256.7005,0,U,44061,999,35150,-.1640875E-3,-.49E-6,0
ONEWEB-0011,2019-010F,2026-06-18T05:22:33.134304,13.15547460,.00021056,87.9014,258.9887,104.9647,255.1717,0,U,44062,999,35155,.21491028E-3,.94E-6,0
ONEWEB-0013,2020-008A,2026-06-18T02:05:13.788960,13.09456232,.00022226,87.8521,52.6437,54.1325,306.0008,0,U,45131,999,30618,-.2068765E-2,-.7E-5,0
ONEWEB-0017,2020-008B,2026-06-18T01:38:57.954912,13.10383707,.00019615,87.8834,36.0938,73.0237,287.1105,0,U,45132,999,30806,.47466033E-2,.167E-4,0
ONEWEB-0020,2020-008C,2026-06-18T02:45:42.098112,13.10441662,.00017277,87.8836,36.0824,81.5586,278.5737,0,U,45133,999,30846,.14274283E-1,.5003E-4,0
ONEWEB-0021,2020-008D,2026-06-18T03:07:19.216128,13.10405743,.00019212,87.8836,36.0953,81.8032,278.3313,0,U,45134,999,30877,.86889674E-2,.3048E-4,0
ONEWEB-0023,2020-008F,2026-06-18T01:32:58.250976,13.10384427,.00019024,87.8839,36.0904,78.5339,281.6002,0,U,45136,999,30819,.2645282E-2,.936E-5,0
ONEWEB-0024,2020-008G,2026-06-18T02:43:27.286464,13.10456500,.00016728,87.8841,36.0724,78.4304,281.7011,0,U,45137,999,30836,.20004599E-1,.701E-4,0
ONEWEB-0025,2020-008H,2026-06-18T02:43:03.453888,13.10457137,.00023668,87.8840,36.0625,85.6994,274.4403,0,U,45138,999,30869,.19184142E-1,.6723E-4,0
ONEWEB-0026,2020-008J,2026-06-18T01:46:43.077216,13.11414784,.0001829,87.8883,20.8918,90.6463,269.4874,0,U,45139,999,31122,-.13838383E-2,-.478E-5,0
ONEWEB-0028,2020-008K,2026-06-18T03:01:11.752608,13.11413940,.00019631,87.8878,20.8899,68.1482,291.9855,0,U,45140,999,30874,.10878848E-2,.398E-5,0
ONEWEB-0032,2020-008L,2026-06-18T01:41:33.853344,13.10375492,.00019744,87.8832,36.0946,68.5068,291.6270,0,U,45141,999,30841,.13465848E-2,.483E-5,0
ONEWEB-0033,2020-008M,2026-06-18T02:55:16.144032,13.10434509,.00016547,87.8842,36.0895,94.5651,265.5665,0,U,45142,999,30833,.13535254E-1,.4744E-4,0
ONEWEB-0035,2020-008N,2026-06-18T01:34:23.382624,13.10377394,.00017257,87.8832,36.0957,85.4299,274.7025,0,U,45143,999,30805,.63332523E-3,.234E-5,0
ONEWEB-0036,2020-008P,2026-06-18T02:48:54.625824,13.09981323,.00019454,87.8847,36.0971,77.6274,282.5071,0,U,45144,999,30848,-.18123175E-2,-.616E-5,0
ONEWEB-0038,2020-008Q,2026-06-18T02:01:34.162752,13.11418121,.00003025,87.8899,20.8987,20.7083,339.4057,0,U,45145,999,31044,-.12772074E-2,-.44E-5,0
ONEWEB-0039,2020-008R,2026-06-18T01:10:16.222368,13.10374808,.00018774,87.8830,36.0966,66.6167,293.5157,0,U,45146,999,30827,-.15006644E-2,-.511E-5,0
ONEWEB-0040,2020-008S,2026-06-16T21:31:21.696960,13.10390462,.00016365,87.8826,36.3351,79.9024,280.2288,0,U,45147,999,30782,-.15988012E-2,-.546E-5,0
ONEWEB-0043,2020-008U,2026-06-18T02:52:52.232736,13.10436838,.00019405,87.8815,36.0840,61.0550,299.0772,0,U,45149,999,30830,.15345128E-1,.5377E-4,0
ONEWEB-0044,2020-008V,2026-06-18T01:43:45.774048,13.10372906,.00017028,87.8841,36.0906,74.5320,285.5995,0,U,45150,999,30859,.49335915E-3,.185E-5,0
ONEWEB-0045,2020-008W,2026-06-18T01:54:02.829024,13.11416623,.00017717,87.8894,20.8822,81.8531,278.2798,0,U,45151,999,31052,-.15834093E-2,-.548E-5,0
ONEWEB-0047,2020-008X,2026-06-18T01:33:58.342176,13.10382229,.00016072,87.8841,36.0917,85.3509,274.7802,0,U,45152,999,30831,.20699718E-2,.735E-5,0
ONEWEB-0048,2020-008Y,2026-06-18T01:26:58.992000,13.10388913,.000183,87.8832,36.1137,84.0231,276.1105,0,U,45153,999,30792,.44496249E-2,.1567E-4,0
ONEWEB-0049,2020-008Z,2026-06-18T01:31:34.534560,13.10386542,.00022201,87.8831,36.1024,80.1467,279.9911,0,U,45154,999,30814,.32202017E-2,.1137E-4,0
ONEWEB-0051,2020-008AA,2026-06-18T01:51:36.904608,13.11417806,.00018351,87.8886,20.8899,85.2152,274.9185,0,U,45155,999,31120,-.13789091E-2,-.476E-5,0
ONEWEB-0052,2020-008AB,2026-06-18T02:00:48.283488,13.10325835,.00024096,87.8849,36.0832,83.2176,276.9225,0,U,45156,999,30805,-.12160505E-1,-.4227E-4,0
